{
    "links": {
        "self": "http://www.neowsapp.com/rest/v1/neo/3765015?api_key=iIulBulltgU6a56xZRHN4H3l9WmuAYTsLGpBGhQ2"
    },
    "id": "3765015",
    "neo_reference_id": "3765015",
    "name": "(2016 WR48)",
    "designation": "2016 WR48",
    "nasa_jpl_url": "http://ssd.jpl.nasa.gov/sbdb.cgi?sstr=3765015",
    "absolute_magnitude_h": 21.1,
    "estimated_diameter": {
        "kilometers": {
            "estimated_diameter_min": 0.160160338,
            "estimated_diameter_max": 0.358129403
        },
        "meters": {
            "estimated_diameter_min": 160.1603379786,
            "estimated_diameter_max": 358.1294030194
        },
        "miles": {
            "estimated_diameter_min": 0.0995189894,
            "estimated_diameter_max": 0.2225312253
        },
        "feet": {
            "estimated_diameter_min": 525.4604432536,
            "estimated_diameter_max": 1174.9652706022
        }
    },
    "is_potentially_hazardous_asteroid": false,
    "close_approach_data": [
        {
            "close_approach_date": "1995-01-08",
            "close_approach_date_full": "1995-Jan-08 12:46",
            "epoch_date_close_approach": 789569160000,
            "relative_velocity": {
                "kilometers_per_second": "7.4650893561",
                "kilometers_per_hour": "26874.3216818148",
                "miles_per_hour": "16698.6583805699"
            },
            "miss_distance": {
                "astronomical": "0.2951431227",
                "lunar": "114.8106747303",
                "kilometers": "44152782.501068649",
                "miles": "27435266.8559353962"
            },
            "orbiting_body": "Earth"
        },
        {
            "close_approach_date": "1997-03-05",
            "close_approach_date_full": "1997-Mar-05 05:31",
            "epoch_date_close_approach": 857539860000,
            "relative_velocity": {
                "kilometers_per_second": "5.8091847135",
                "kilometers_per_hour": "20913.0649685682",
                "miles_per_hour": "12994.5652856084"
            },
            "miss_distance": {
                "astronomical": "1.6930524638",
                "lunar": "658.5974084182",
                "kilometers": "253277042.382732106",
                "miles": "157379056.3728148228"
            },
            "orbiting_body": "Juptr"
        },
        {
            "close_approach_date": "2017-01-08",
            "close_approach_date_full": "2017-Jan-08 03:24",
            "epoch_date_close_approach": 1483845840000,
            "relative_velocity": {
                "kilometers_per_second": "6.7703234254",
                "kilometers_per_hour": "24373.164331268",
                "miles_per_hour": "15144.5364701704"
            },
            "miss_distance": {
                "astronomical": "0.2904910855",
                "lunar": "113.0010322595",
                "kilometers": "43456847.644787885",
                "miles": "27002832.988467413"
            },
            "orbiting_body": "Earth"
        }
    ],
    "orbital_data": {
        "orbit_id": "11",
        "orbit_determination_date": "2017-04-06 08:21:44",
        "first_observation_date": "2016-11-30",
        "last_observation_date": "2017-02-03",
        "data_arc_in_days": 65,
        "observations_used": 72,
        "orbit_uncertainty": "6",
        "minimum_orbit_intersection": ".268331",
        "jupiter_tisserand_invariant": "3.132",
        "epoch_osculation": "2459000.5",
        "eccentricity": ".5333531000344787",
        "semi_major_axis": "2.681024848287619",
        "inclination": "11.3353825100175",
        "ascending_node_longitude": "112.99068165",
        "orbital_period": "1603.428820867788",
        "perihelion_distance": "1.251091934183949",
        "perihelion_argument": "354.823380000238",
        "aphelion_distance": "4.110957762391288",
        "perihelion_time": "2459372.027089043719",
        "mean_anomaly": "276.5851640465384",
        "mean_motion": ".2245188531694006",
        "equinox": "J2000",
        "orbit_class": {
            "orbit_class_type": "AMO",
            "orbit_class_description": "Near-Earth asteroid orbits similar to that of 1221 Amor",
            "orbit_class_range": "1.017 AU < q (perihelion) < 1.3 AU"
        }
    },
    "is_sentry_object": false
}